[{"OBJECT_NAME":"OCEANSAT-2","OBJECT_ID":"2009-051A","EPOCH":"2026-03-09T23:26:13.608096","MEAN_MOTION":13.9963812,"ECCENTRICITY":0.00172663,"INCLINATION":98.2279,"RA_OF_ASC_NODE":65.7594,"ARG_OF_PERICENTER":150.7548,"MEAN_ANOMALY":209.4589,"EPHEMERIS_TYPE":0,"CLASSIFICATION_TYPE":"U","NORAD_CAT_ID":35931,"ELEMENT_SET_NO":999,"REV_AT_EPOCH":86545,"BSTAR":0.00020254017,"MEAN_MOTION_DOT":2.59e-6,"MEAN_MOTION_DDOT":0},{"OBJECT_NAME":"SCOUT X-4 DEB","OBJECT_ID":"1964-064D","EPOCH":"2026-03-08T23:42:23.677920","MEAN_MOTION":13.79059952,"ECCENTRICITY":0.01267361,"INCLINATION":80.0413,"RA_OF_ASC_NODE":256.5149,"ARG_OF_PERICENTER":57.3904,"MEAN_ANOMALY":303.9405,"EPHEMERIS_TYPE":0,"CLASSIFICATION_TYPE":"U","NORAD_CAT_ID":977,"ELEMENT_SET_NO":999,"REV_AT_EPOCH":7562,"BSTAR":0.00032071956,"MEAN_MOTION_DOT":3.57e-6,"MEAN_MOTION_DDOT":0}]
